GLOBALSTAR M063         
1 26081U 00008A   24337.58845488  .00000021  00000+0  15234-2 0  9993
2 26081  51.9962 269.3411 0004590 303.7753 227.0152 11.86164483134248
GLOBALSTAR M062         
1 26082U 00008B   24337.36581396 -.00000001  00000+0  69864-3 0  9993
2 26082  51.9860 314.5698 0007392  51.1187  96.3262 12.43452850472138
GLOBALSTAR M060         
1 26083U 00008C   24337.49023270  .00000019  00000+0  10984-2 0  9996
2 26083  52.0017 246.3845 0004297  78.2583  93.1074 12.17647932128404
GLOBALSTAR M064         
1 26084U 00008D   24337.43421723 -.00000068  00000+0  21291-3 0  9995
2 26084  52.0059  10.8939 0001523  47.6056 312.4905 11.88525982143700
GLOBALSTAR M065         
1 31571U 07020A   24337.48581390 -.00000051  00000+0  29651-3 0  9995
2 31571  51.9883 104.9545 0009728 223.8062 175.4053 12.61980141808576
GLOBALSTAR M069         
1 31573U 07020C   24337.56579808 -.00000062  00000+0  24709-3 0  9998
2 31573  51.9962  63.4887 0001276 117.4517 255.8762 12.53305761809668
GLOBALSTAR M072         
1 31574U 07020D   24337.54807861 -.00000095  00000+0  71043-5 0  9991
2 31574  52.0056 160.5857 0001321  86.7805 308.3985 12.34773480807924
